[{"OBJECT_NAME":"OBJECT AL","OBJECT_ID":"2023-085AL","EPOCH":"2026-03-09T22:26:04.970400","MEAN_MOTION":15.31857284,"ECCENTRICITY":0.000802,"INCLINATION":97.4839,"RA_OF_ASC_NODE":180.0127,"ARG_OF_PERICENTER":78.7242,"MEAN_ANOMALY":281.49,"EPHEMERIS_TYPE":0,"CLASSIFICATION_TYPE":"U","NORAD_CAT_ID":57038,"ELEMENT_SET_NO":999,"REV_AT_EPOCH":15154,"BSTAR":0.0006591637,"MEAN_MOTION_DOT":0.00020246,"MEAN_MOTION_DDOT":0},{"OBJECT_NAME":"STARLINK-32292","OBJECT_ID":"2024-204R","EPOCH":"2026-03-09T12:54:54.352512","MEAN_MOTION":15.30187281,"ECCENTRICITY":0.00010456,"INCLINATION":53.1601,"RA_OF_ASC_NODE":127.8321,"ARG_OF_PERICENTER":122.8246,"MEAN_ANOMALY":237.2855,"EPHEMERIS_TYPE":0,"CLASSIFICATION_TYPE":"U","NORAD_CAT_ID":61889,"ELEMENT_SET_NO":999,"REV_AT_EPOCH":7507,"BSTAR":-1.7371457e-5,"MEAN_MOTION_DOT":-8.73e-6,"MEAN_MOTION_DDOT":0}]
